[
    {
        "Altitude(m)": 553957.673920987,
        "Argument of Periapsis(deg)": 0.019868973332140504,
        "Eccentricity": 0.0,
        "Inclination(deg)": 53.0,
        "Latitude(deg)": 2.3485090123256933,
        "Longitude(deg)": -5.6190362162457985,
        "Mean Anomaly(deg)": 3.0020786027327726,
        "RAAN(deg)": 94.97043010558406,
        "Satellite Name": "Starlink Shell 1 438",
        "Satellite Number": 438,
        "Semi-Major Axis(m)": 6931778.249405717,
        "Time(s)": 570
    },
    {
        "Altitude(m)": 553906.8141361753,
        "Argument of Periapsis(deg)": 0.02021755181165174,
        "Eccentricity": 0.0,
        "Inclination(deg)": 53.0,
        "Latitude(deg)": 2.852194606793679,
        "Longitude(deg)": -5.282860339940818,
        "Mean Anomaly(deg)": 3.628909806289481,
        "RAAN(deg)": 94.96991133550658,
        "Satellite Name": "Starlink Shell 1 438",
        "Satellite Number": 438,
        "Semi-Major Axis(m)": 6931778.249405717,
        "Time(s)": 580
    },
    {
        "Altitude(m)": 553858.7757314263,
        "Argument of Periapsis(deg)": 0.020566130291162974,
        "Eccentricity": 0.0,
        "Inclination(deg)": 53.0,
        "Latitude(deg)": 3.3557597618408264,
        "Longitude(deg)": -4.946349738184299,
        "Mean Anomaly(deg)": 4.255741009846139,
        "RAAN(deg)": 94.9693925654291,
        "Satellite Name": "Starlink Shell 1 438",
        "Satellite Number": 438,
        "Semi-Major Axis(m)": 6931778.249405717,
        "Time(s)": 590
    },
    {
        "Altitude(m)": 553813.5583527851,
        "Argument of Periapsis(deg)": 0.020914708770674213,
        "Eccentricity": 0.0,
        "Inclination(deg)": 53.0,
        "Latitude(deg)": 3.8591813389776206,
        "Longitude(deg)": -4.609446372848328,
        "Mean Anomaly(deg)": 4.88257221340291,
        "RAAN(deg)": 94.96887379535163,
        "Satellite Name": "Starlink Shell 1 438",
        "Satellite Number": 438,
        "Semi-Major Axis(m)": 6931778.249405717,
        "Time(s)": 600
    },
    {
        "Altitude(m)": 553771.1602979777,
        "Argument of Periapsis(deg)": 0.021263287250185448,
        "Eccentricity": 0.0,
        "Inclination(deg)": 53.0,
        "Latitude(deg)": 4.362436117547667,
        "Longitude(deg)": -4.2720920316276105,
        "Mean Anomaly(deg)": 5.509403416959556,
        "RAAN(deg)": 94.96835502527418,
        "Satellite Name": "Starlink Shell 1 438",
        "Satellite Number": 438,
        "Semi-Major Axis(m)": 6931778.249405717,
        "Time(s)": 610
    },
    {
        "Altitude(m)": 553731.578520018,
        "Argument of Periapsis(deg)": 0.021611865729696686,
        "Eccentricity": 0.0,
        "Inclination(deg)": 53.0,
        "Latitude(deg)": 4.865500782746751,
        "Longitude(deg)": -3.9342277982944234,
        "Mean Anomaly(deg)": 6.136234620516314,
        "RAAN(deg)": 94.9678362551967,
        "Satellite Name": "Starlink Shell 1 438",
        "Satellite Number": 438,
        "Semi-Major Axis(m)": 6931778.249405717,
        "Time(s)": 620
    },
    {
        "Altitude(m)": 553694.8086315019,
        "Argument of Periapsis(deg)": 0.02196044420920792,
        "Eccentricity": 0.0,
        "Inclination(deg)": 53.0,
        "Latitude(deg)": 5.368351913548554,
        "Longitude(deg)": -3.595795203863962,
        "Mean Anomaly(deg)": 6.763065824073086,
        "RAAN(deg)": 94.96731748511922,
        "Satellite Name": "Starlink Shell 1 438",
        "Satellite Number": 438,
        "Semi-Major Axis(m)": 6931778.249405717,
        "Time(s)": 630
    },
    {
        "Altitude(m)": 553660.8449095793,
        "Argument of Periapsis(deg)": 0.02230902268871916,
        "Eccentricity": 0.0,
        "Inclination(deg)": 53.0,
        "Latitude(deg)": 5.870965970535323,
        "Longitude(deg)": -3.2567348562369265,
        "Mean Anomaly(deg)": 7.389897027629732,
        "RAAN(deg)": 94.96679871504175,
        "Satellite Name": "Starlink Shell 1 438",
        "Satellite Number": 438,
        "Semi-Major Axis(m)": 6931778.249405717,
        "Time(s)": 640
    },
    {
        "Altitude(m)": 553629.6803015602,
        "Argument of Periapsis(deg)": 0.022657601168230398,
        "Eccentricity": 0.0,
        "Inclination(deg)": 53.0,
        "Latitude(deg)": 6.373319283611979,
        "Longitude(deg)": -2.9169875912255536,
        "Mean Anomaly(deg)": 8.016728231186503,
        "RAAN(deg)": 94.96627994496427,
        "Satellite Name": "Starlink Shell 1 438",
        "Satellite Number": 438,
        "Semi-Major Axis(m)": 6931778.249405717,
        "Time(s)": 650
    },
    {
        "Altitude(m)": 553601.3064312178,
        "Argument of Periapsis(deg)": 0.023006179647741636,
        "Eccentricity": 0.0,
        "Inclination(deg)": 53.0,
        "Latitude(deg)": 6.875388039598683,
        "Longitude(deg)": -2.57649394253206,
        "Mean Anomaly(deg)": 8.64355943474316,
        "RAAN(deg)": 94.9657611748868,
        "Satellite Name": "Starlink Shell 1 438",
        "Satellite Number": 438,
        "Semi-Major Axis(m)": 6931778.249405717,
        "Time(s)": 660
    },
    {
        "Altitude(m)": 553575.7136057228,
        "Argument of Periapsis(deg)": 0.023354758127252868,
        "Eccentricity": 0.0,
        "Inclination(deg)": 53.0,
        "Latitude(deg)": 7.377148269689448,
        "Longitude(deg)": -2.2351936116443323,
        "Mean Anomaly(deg)": 9.270390638299906,
        "RAAN(deg)": 94.96524240480935,
        "Satellite Name": "Starlink Shell 1 438",
        "Satellite Number": 438,
        "Semi-Major Axis(m)": 6931778.249405717,
        "Time(s)": 670
    },
    {
        "Altitude(m)": 553552.8908232534,
        "Argument of Periapsis(deg)": 0.023703336606764106,
        "Eccentricity": 0.0,
        "Inclination(deg)": 53.0,
        "Latitude(deg)": 7.878575836759695,
        "Longitude(deg)": -1.8930264505196859,
        "Mean Anomaly(deg)": 9.897221841856577,
        "RAAN(deg)": 94.96472363473187,
        "Satellite Name": "Starlink Shell 1 438",
        "Satellite Number": 438,
        "Semi-Major Axis(m)": 6931778.249405717,
        "Time(s)": 680
    },
    {
        "Altitude(m)": 553532.8257812348,
        "Argument of Periapsis(deg)": 0.024051915086275345,
        "Eccentricity": 0.0,
        "Inclination(deg)": 53.0,
        "Latitude(deg)": 8.379646422518832,
        "Longitude(deg)": -1.5499319313050441,
        "Mean Anomaly(deg)": 10.524053045413234,
        "RAAN(deg)": 94.96420486465439,
        "Satellite Name": "Starlink Shell 1 438",
        "Satellite Number": 438,
        "Semi-Major Axis(m)": 6931778.249405717,
        "Time(s)": 690
    },
    {
        "Altitude(m)": 553515.5048852359,
        "Argument of Periapsis(deg)": 0.024400493565786583,
        "Eccentricity": 0.0,
        "Inclination(deg)": 53.0,
        "Latitude(deg)": 8.880335514491565,
        "Longitude(deg)": -1.205848615965621,
        "Mean Anomaly(deg)": 11.150884248970096,
        "RAAN(deg)": 94.96368609457691,
        "Satellite Name": "Starlink Shell 1 438",
        "Satellite Number": 438,
        "Semi-Major Axis(m)": 6931778.249405717,
        "Time(s)": 700
    },
    {
        "Altitude(m)": 553500.9132585116,
        "Argument of Periapsis(deg)": 0.024749072045297815,
        "Eccentricity": 0.0,
        "Inclination(deg)": 53.0,
        "Latitude(deg)": 9.380618392813327,
        "Longitude(deg)": -0.8607151386940783,
        "Mean Anomaly(deg)": 11.777715452526753,
        "RAAN(deg)": 94.96316732449944,
        "Satellite Name": "Starlink Shell 1 438",
        "Satellite Number": 438,
        "Semi-Major Axis(m)": 6931778.249405717,
        "Time(s)": 710
    },
    {
        "Altitude(m)": 553489.0347521667,
        "Argument of Periapsis(deg)": 0.025097650524809053,
        "Eccentricity": 0.0,
        "Inclination(deg)": 53.0,
        "Latitude(deg)": 9.880470116835372,
        "Longitude(deg)": -0.5144696753499675,
        "Mean Anomaly(deg)": 12.404546656083424,
        "RAAN(deg)": 94.96264855442196,
        "Satellite Name": "Starlink Shell 1 438",
        "Satellite Number": 438,
        "Semi-Major Axis(m)": 6931778.249405717,
        "Time(s)": 720
    },
    {
        "Altitude(m)": 553479.8519559408,
        "Argument of Periapsis(deg)": 0.02544622900432029,
        "Eccentricity": 0.0,
        "Inclination(deg)": 53.0,
        "Latitude(deg)": 10.379865511521613,
        "Longitude(deg)": -0.16704941280694022,
        "Mean Anomaly(deg)": 13.03137785964017,
        "RAAN(deg)": 94.9621297843445,
        "Satellite Name": "Starlink Shell 1 438",
        "Satellite Number": 438,
        "Semi-Major Axis(m)": 6931778.249405717,
        "Time(s)": 730
    },
    {
        "Altitude(m)": 553473.3462096505,
        "Argument of Periapsis(deg)": 0.02579480748383153,
        "Eccentricity": 0.0,
        "Inclination(deg)": 53.0,
        "Latitude(deg)": 10.878779153624153,
        "Longitude(deg)": 0.18160846892020116,
        "Mean Anomaly(deg)": 13.658209063196827,
        "RAAN(deg)": 94.96161101426704,
        "Satellite Name": "Starlink Shell 1 438",
        "Satellite Number": 438,
        "Semi-Major Axis(m)": 6931778.249405717,
        "Time(s)": 740
    },
    {
        "Altitude(m)": 553469.4976152031,
        "Argument of Periapsis(deg)": 0.026143385963342765,
        "Eccentricity": 0.0,
        "Inclination(deg)": 53.0,
        "Latitude(deg)": 11.377185357631083,
        "Longitude(deg)": 0.5315673275126221,
        "Mean Anomaly(deg)": 14.285040266753601,
        "RAAN(deg)": 94.96109224418953,
        "Satellite Name": "Starlink Shell 1 438",
        "Satellite Number": 438,
        "Semi-Major Axis(m)": 6931778.249405717,
        "Time(s)": 750
    }
]